OSCAR 7 (AO-7)          
1 07530U 74089B   26197.60106014 -.00000041  00000+0  35368-4 0  9990
2 07530 101.9906 211.1542 0012659  75.7448  43.0443 12.53698612364203
PHASE 3B (AO-10)        
1 14129U 83058B   26194.10401075 -.00000187  00000+0  00000+0 0  9996
2 14129  25.9345 215.2934 6002223 122.7887 309.2966  2.05872336296023
UOSAT 2 (UO-11)         
1 14781U 84021B   26197.41797552  .00000486  00000+0  54959-4 0  9994
2 14781  97.8077 162.6705 0009254  88.1035 272.1242 14.90850497261481
LUSAT (LO-19)           
1 20442U 90005G   26197.62427866  .00000030  00000+0  27212-4 0  9992
2 20442  98.8847 220.2401 0012580 117.5331 242.7132 14.34130988906610
EYESAT A (AO-27)        
1 22825U 93061C   26197.64749763  .00000036  00000+0  30655-4 0  9990
2 22825  98.6867 265.0482 0008681  21.8600 338.2951 14.30949289711214
ITAMSAT (IO-26)         
1 22826U 93061D   26197.47831066  .00000038  00000+0  31007-4 0  9994
2 22826  98.6815 264.7994 0008857   5.6610 354.4672 14.31376879711500
RADIO ROSTO (RS15)      
1 23439U 94085A   26197.82682514 -.00000039  00000+0  10330-3 0  9990
2 23439  64.8148 255.2818 0156981 358.4104   1.6303 11.27583527299240
JAS-2 (FO-29)           
1 24278U 96046B   26197.81030832 -.00000013  00000+0  22541-4 0  9990
2 24278  98.5219  42.6217 0350283  19.7567 341.6761 13.53275772477173
TECHSAT 1B (GO-32)      
1 25397U 98043D   26197.56639281  .00000006  00000+0  22598-4 0  9990
2 25397  99.0086 191.0683 0002226 112.6972 247.4441 14.24433519455510
ISS (ZARYA)             
1 25544U 98067A   26197.86314870  .00003748  00000+0  76099-4 0  9998
2 25544  51.6311 153.2312 0006736 304.1301  55.9047 15.49027546576359
PCSAT (NO-44)           
1 26931U 01043C   26197.28474308  .00000016  00000+0  37045-4 0  9999
2 26931  67.0495 169.0114 0005912 266.7089  93.3336 14.31965226294619
SAUDISAT 1C (SO-50)     
1 27607U 02058C   26197.69007697  .00000351  00000+0  59565-4 0  9998
2 27607  64.5519  37.6997 0074486 256.9971 102.2811 14.83099959268832
CUTE-1 (CO-55)          
1 27844U 03031E   26197.54116079  .00000131  00000+0  75515-4 0  9991
2 27844  98.6744 205.7314 0010852  99.2116 261.0291 14.24352049195854
CUBESAT XI-IV (CO-57)   
1 27848U 03031J   26197.47409145  .00000105  00000+0  65297-4 0  9993
2 27848  98.6775 205.3542 0010587 115.9860 244.2410 14.23634953195546
MOZHAETS 4 (RS22)       
1 27939U 03042A   26197.90150441  .00000641  00000+0  10690-3 0  9997
2 27939  98.3468  23.1012 0011340 167.8166 328.7817 14.73516328219922
CUBESAT XI-V            
1 28895U 05043F   26197.68672259  .00000630  00000+0  10690-3 0  9991
2 28895  98.3017 353.9342 0015305 110.8516 249.4332 14.72704407106096
CUTE-1.7+APD II (CO-65) 
1 32785U 08021C   26197.87798977  .00002444  00000+0  15580-3 0  9998
2 32785  97.8297 179.9231 0006903 292.7093  67.3405 15.09710264989670
SEEDS II (CO-66)        
1 32791U 08021J   26197.50387267  .00010519  00000+0  32533-3 0  9990
2 32791  97.7523 196.8243 0003211 153.5241 206.6165 15.33693982991787
YUBILEINY (RS30)        
1 32953U 08025A   26197.79487319 -.00000062  00000+0 -51414-3 0  9997
2 32953  82.5063 337.0212 0018650 245.1876 114.7265 12.43180449823374
KKS-1 (KISEKI)          
1 33499U 09002H   26197.80608324  .00000581  00000+0  77975-4 0  9997
2 33499  98.1173 120.7176 0007569 183.4463 176.6699 14.83191379940585
SWISSCUBE               
1 35932U 09051B   26197.17712107  .00000443  00000+0  97133-4 0  9995
2 35932  98.4006 105.5678 0007887 116.4429 243.7582 14.62531689893398
BEESAT-1                
1 35933U 09051C   26197.68087812  .00000383  00000+0  86615-4 0  9996
2 35933  98.3932 105.6536 0006186 125.9975 234.1800 14.61763234893492
ITUPSAT1                
1 35935U 09051E   26197.69763233  .00000341  00000+0  80333-4 0  9992
2 35935  98.4015 104.8308 0008180 138.8915 221.2902 14.60479971893040
XIWANG-1 (HOPE-1)       
1 36122U 09072B   26197.88353597 -.00000340  00000+0 -77375-3 0  9995
2 36122 100.4040 151.2438 0007579 161.1139 199.0256 13.16438974796919
O/OREOS (USA 219)       
1 37224U 10062C   26197.59463802  .00000984  00000+0  98492-4 0  9995
2 37224  71.9698  13.7179 0014055   2.3576 357.7658 14.93854584121035
JUGNU                   
1 37839U 11058B   26197.86459426  .00000340  00000+0  38423-4 0  9994
2 37839  19.9595 128.1201 0018609  44.8946 353.5105 14.13783693763232
SRMSAT                  
1 37841U 11058D   26197.50190566  .00000328  00000+0  34086-4 0  9992
2 37841  19.9708 242.0370 0011714 165.5426 335.9764 14.11581255761969
STRAND-1                
1 39090U 13009E   26197.43623744  .00000110  00000+0  51462-4 0  9995
2 39090  98.3935  16.9527 0009469 137.7246 222.4672 14.37179260701269
ZACUBE-1 (TSHEPISOSAT)  
1 39417U 13066B   26197.86752571  .00001271  00000+0  10164-3 0  9991
2 39417  97.8006 160.3502 0044085 149.8632 210.5142 15.01333247685189
GOMX-1                  
1 39430U 13066Q   26197.80535012  .00000663  00000+0  10639-3 0  9990
2 39430  97.6462  36.3989 0128111 343.0273  16.6667 14.69544995674262
